HIMAWARI-8              
1 40267U 14060A   24024.91646729 -.00000275  00000+0  00000+0 0  9999
2 40267   0.0367 239.2914 0001085  70.7754 284.2111  1.00271713 33996
